{"type":"Feature","properties":{"MUN":"TOMS RIVER TWP","COUNTY":"OCEAN","MUN_LABEL":"Toms River Township","MUN_TYPE":"Township","NAME":"Toms River Township","GNIS_NAME":"Township of Toms River"},"geometry":{"type":"Polygon","coordinates":[[[-74.0940002,39.9421459],[-74.0984027,39.9457838],[-74.0843431,40.0065783],[-74.0649355,40.0025492],[-74.062775,40.0019183],[-74.0582505,40.0011751],[-74.0583514,40.0006861],[-74.0584902,40.0000145],[-74.0584922,40.0000091],[-74.0588724,39.9986709],[-74.0593387,39.9967421],[-74.0593521,39.9966169],[-74.0594493,39.9963155],[-74.0596969,39.995339],[-74.0597589,39.995004],[-74.0598031,39.9948505],[-74.0598042,39.9947186],[-74.0598876,39.994384],[-74.059913,39.9943391],[-74.0600478,39.9934791],[-74.0602846,39.992572],[-74.0604232,39.9920473],[-74.0604536,39.9918985],[-74.0604798,39.991569],[-74.0605239,39.9914098],[-74.0605757,39.9912234],[-74.0606569,39.9910198],[-74.0608271,39.9900031],[-74.0611434,39.9886966],[-74.0615288,39.9871141],[-74.062027,39.9849595],[-74.0625015,39.9827944],[-74.0628558,39.9814378],[-74.0629563,39.9809497],[-74.0629851,39.9804125],[-74.0630247,39.9801684],[-74.063057,39.9800542],[-74.0679491,39.9805328],[-74.0677978,39.9814374],[-74.068438,39.981501],[-74.0686699,39.981524],[-74.0689046,39.9815456],[-74.0688299,39.9820044],[-74.0699562,39.9821084],[-74.0700077,39.9820424],[-74.0701006,39.9819234],[-74.0702747,39.9819395],[-74.0704164,39.9819533],[-74.070558,39.981967],[-74.0706996,39.9819808],[-74.0708412,39.9819946],[-74.0709828,39.9820084],[-74.0711953,39.982029],[-74.0714024,39.9820492],[-74.0715383,39.9820694],[-74.0716843,39.9820901],[-74.0718309,39.9821041],[-74.0719725,39.9821176],[-74.0721142,39.9821311],[-74.0722558,39.9821447],[-74.0723975,39.9821582],[-74.0725392,39.9821717],[-74.0726808,39.9821852],[-74.0728225,39.9821987],[-74.0729622,39.982212],[-74.0731193,39.982227],[-74.0733053,39.9822448],[-74.0736747,39.9822783],[-74.0736906,39.9821546],[-74.0739606,39.9805128],[-74.0745841,39.9800566],[-74.0749247,39.979276],[-74.0752637,39.9789729],[-74.0754112,39.9789823],[-74.0752625,39.9787379],[-74.0746758,39.9777731],[-74.075795,39.9688887],[-74.0782678,39.9691228],[-74.0824807,39.9667596],[-74.0845939,39.9661622],[-74.0865608,39.9643447],[-74.0850947,39.9618453],[-74.0807858,39.960536],[-74.0788339,39.9607055],[-74.0782427,39.9604731],[-74.0778972,39.9609096],[-74.0778614,39.9615157],[-74.077943,39.9616674],[-74.0776274,39.9617556],[-74.0772134,39.9617151],[-74.0768726,39.9616299],[-74.0768968,39.9614602],[-74.0758107,39.9613526],[-74.0753585,39.9612348],[-74.0752402,39.9612236],[-74.0752887,39.960895],[-74.0738798,39.9607618],[-74.0736172,39.9607941],[-74.07336,39.9607694],[-74.07342,39.9603913],[-74.0727818,39.96033],[-74.0727649,39.9604282],[-74.0725096,39.960404],[-74.0724904,39.9605094],[-74.0720707,39.9604024],[-74.0713358,39.9602151],[-74.0713341,39.9602252],[-74.0713334,39.9602292],[-74.0704482,39.9601436],[-74.0705222,39.9596839],[-74.0701277,39.9596461],[-74.0701188,39.9597006],[-74.0684227,39.9595524],[-74.0684496,39.959371],[-74.0680051,39.9593338],[-74.0680075,39.9593183],[-74.0667782,39.9592107],[-74.0668061,39.9590776],[-74.066982,39.9584482],[-74.0669806,39.9584432],[-74.0670805,39.9577427],[-74.0671572,39.957393],[-74.067273,39.9564271],[-74.067384,39.9555007],[-74.0674933,39.9547757],[-74.067559,39.9545173],[-74.0675643,39.9540794],[-74.0677095,39.9532237],[-74.0678058,39.9526286],[-74.0678678,39.9521304],[-74.0679139,39.9519766],[-74.068003,39.9506812],[-74.0681256,39.9499114],[-74.0681826,39.9495591],[-74.0681845,39.9494327],[-74.0682326,39.9490483],[-74.0682374,39.9488536],[-74.0682712,39.948158],[-74.0682776,39.9481083],[-74.0683742,39.9481177],[-74.0687033,39.9481497],[-74.0699525,39.9482711],[-74.0701297,39.9482883],[-74.0714921,39.9484207],[-74.0790632,39.9491564],[-74.0819577,39.9494376],[-74.0834824,39.9548317],[-74.0866003,39.9538513],[-74.089036,39.9508969],[-74.0890535,39.9478421],[-74.0867168,39.9437832],[-74.093966,39.9421536],[-74.0940002,39.9421459]]]}}
